[{"OBJECT_NAME":"KOYOH","OBJECT_ID":"2023-185C","EPOCH":"2026-03-09T23:57:30.987648","MEAN_MOTION":15.16984541,"ECCENTRICITY":0.00055962,"INCLINATION":97.5396,"RA_OF_ASC_NODE":141.7167,"ARG_OF_PERICENTER":294.7057,"MEAN_ANOMALY":65.3594,"EPHEMERIS_TYPE":0,"CLASSIFICATION_TYPE":"U","NORAD_CAT_ID":58464,"ELEMENT_SET_NO":999,"REV_AT_EPOCH":12508,"BSTAR":0.00043532489,"MEAN_MOTION_DOT":8.537e-5,"MEAN_MOTION_DDOT":0},{"OBJECT_NAME":"CZ-6A DEB","OBJECT_ID":"2024-140ZQ","EPOCH":"2026-03-09T07:41:20.503680","MEAN_MOTION":14.88666488,"ECCENTRICITY":0.01239144,"INCLINATION":88.9332,"RA_OF_ASC_NODE":275.1602,"ARG_OF_PERICENTER":122.3295,"MEAN_ANOMALY":239.0003,"EPHEMERIS_TYPE":0,"CLASSIFICATION_TYPE":"U","NORAD_CAT_ID":61458,"ELEMENT_SET_NO":999,"REV_AT_EPOCH":8241,"BSTAR":0.001542641,"MEAN_MOTION_DOT":0.00016654,"MEAN_MOTION_DDOT":0}]
